{
  "type": "FeatureCollection",
  "features": [
    {
      "type": "Feature",
      "properties": {
        "norad_id": 63772,
        "name": "BIOMASS",
        "group": "resource",
        "lat": 71.50510012435625,
        "lon": 13.857473388633341,
        "alt_km": 661.3015897000068,
        "timestamp": "2025-12-09T16:56:36.238151+00:00",
        "meta_object_name": "BIOMASS",
        "meta_object_id": "2025-090A",
        "meta_epoch": "2025-12-09T11:33:00.255744",
        "meta_mean_motion": 14.67534262,
        "meta_eccentricity": 0.0001205,
        "meta_inclination": 98.0699,
        "meta_ra_of_asc_node": 168.5387,
        "meta_arg_of_pericenter": 78.6099,
        "meta_mean_anomaly": 281.5241,
        "meta_ephemeris_type": 0,
        "meta_classification_type": "U",
        "meta_norad_cat_id": 63772,
        "meta_element_set_no": 999,
        "meta_rev_at_epoch": 3286,
        "meta_bstar": 0.00035298,
        "meta_mean_motion_dot": 1.954e-05,
        "meta_mean_motion_ddot": 0,
        "tle_line1": "1 63772U 25090A   25343.48125296  .00001954  00000+0  35298-3 0  9993",
        "tle_line2": "2 63772  98.0699 168.5387 0001205  78.6099 281.5241 14.67534262 32865"
      },
      "geometry": {
        "type": "Point",
        "coordinates": [
          13.857473388633341,
          71.50510012435625
        ]
      }
    },
    {
      "type": "Feature",
      "properties": {
        "norad_id": 64694,
        "name": "GOSAT-GW (IBUKI GW)",
        "group": "resource",
        "lat": -43.63100988545065,
        "lon": -72.97979095741597,
        "alt_km": 676.099624504297,
        "timestamp": "2025-12-09T16:56:36.238162+00:00",
        "meta_object_name": "GOSAT-GW (IBUKI GW)",
        "meta_object_id": "2025-141A",
        "meta_epoch": "2025-12-08T18:14:08.043648",
        "meta_mean_motion": 14.67565462,
        "meta_eccentricity": 0.00014946,
        "meta_inclination": 98.0423,
        "meta_ra_of_asc_node": 278.345,
        "meta_arg_of_pericenter": 82.5316,
        "meta_mean_anomaly": 277.6059,
        "meta_ephemeris_type": 0,
        "meta_classification_type": "U",
        "meta_norad_cat_id": 64694,
        "meta_element_set_no": 999,
        "meta_rev_at_epoch": 2391,
        "meta_bstar": 0.00038232231,
        "meta_mean_motion_dot": 2.122e-05,
        "meta_mean_motion_ddot": 0,
        "tle_line1": "1 64694U 25141A   25342.75981532  .00002122  00000+0  38232-3 0  9995",
        "tle_line2": "2 64694  98.0423 278.3450 0001494  82.5316 277.6059 14.67565462 23916"
      },
      "geometry": {
        "type": "Point",
        "coordinates": [
          -72.97979095741597,
          -43.63100988545065
        ]
      }
    },
    {
      "type": "Feature",
      "properties": {
        "norad_id": 64876,
        "name": "IONOSFERA-M 3",
        "group": "resource",
        "lat": 75.82680826793829,
        "lon": 162.361027298875,
        "alt_km": 811.9508757695176,
        "timestamp": "2025-12-09T16:56:36.238172+00:00",
        "meta_object_name": "IONOSFERA-M 3",
        "meta_object_id": "2025-155A",
        "meta_epoch": "2025-12-09T11:24:02.179872",
        "meta_mean_motion": 14.2143981,
        "meta_eccentricity": 0.0002312,
        "meta_inclination": 98.5778,
        "meta_ra_of_asc_node": 305.4336,
        "meta_arg_of_pericenter": 65.1201,
        "meta_mean_anomaly": 295.0216,
        "meta_ephemeris_type": 0,
        "meta_classification_type": "U",
        "meta_norad_cat_id": 64876,
        "meta_element_set_no": 999,
        "meta_rev_at_epoch": 1945,
        "meta_bstar": 9.5921e-05,
        "meta_mean_motion_dot": 1.67e-06,
        "meta_mean_motion_ddot": 0,
        "tle_line1": "1 64876U 25155A   25343.47502523  .00000167  00000+0  95921-4 0  9997",
        "tle_line2": "2 64876  98.5778 305.4336 0002312  65.1201 295.0216 14.21439810 19451"
      },
      "geometry": {
        "type": "Point",
        "coordinates": [
          162.361027298875,
          75.82680826793829
        ]
      }
    },
    {
      "type": "Feature",
      "properties": {
        "norad_id": 64877,
        "name": "IONOSFERA-M 4",
        "group": "resource",
        "lat": -75.37139889112667,
        "lon": -19.09409378613182,
        "alt_km": 828.7611061165599,
        "timestamp": "2025-12-09T16:56:36.238182+00:00",
        "meta_object_name": "IONOSFERA-M 4",
        "meta_object_id": "2025-155B",
        "meta_epoch": "2025-12-09T12:14:32.099136",
        "meta_mean_motion": 14.2144093,
        "meta_eccentricity": 0.0001669,
        "meta_inclination": 98.5777,
        "meta_ra_of_asc_node": 305.3873,
        "meta_arg_of_pericenter": 66.6609,
        "meta_mean_anomaly": 293.4744,
        "meta_ephemeris_type": 0,
        "meta_classification_type": "U",
        "meta_norad_cat_id": 64877,
        "meta_element_set_no": 999,
        "meta_rev_at_epoch": 1945,
        "meta_bstar": 0.00010038,
        "meta_mean_motion_dot": 1.77e-06,
        "meta_mean_motion_ddot": 0,
        "tle_line1": "1 64877U 25155B   25343.51009374  .00000177  00000+0  10038-3 0  9995",
        "tle_line2": "2 64877  98.5777 305.3873 0001669  66.6609 293.4744 14.21440930 19451"
      },
      "geometry": {
        "type": "Point",
        "coordinates": [
          -19.09409378613182,
          -75.37139889112667
        ]
      }
    },
    {
      "type": "Feature",
      "properties": {
        "norad_id": 64899,
        "name": "MICROCARB",
        "group": "resource",
        "lat": -63.71921506116551,
        "lon": -137.4524795487069,
        "alt_km": 661.8848571390799,
        "timestamp": "2025-12-09T16:56:36.238193+00:00",
        "meta_object_name": "MICROCARB",
        "meta_object_id": "2025-156A",
        "meta_epoch": "2025-12-09T10:56:29.937984",
        "meta_mean_motion": 14.72049485,
        "meta_eccentricity": 0.0016934,
        "meta_inclination": 98.0028,
        "meta_ra_of_asc_node": 58.854,
        "meta_arg_of_pericenter": 154.8146,
        "meta_mean_anomaly": 205.389,
        "meta_ephemeris_type": 0,
        "meta_classification_type": "U",
        "meta_norad_cat_id": 64899,
        "meta_element_set_no": 999,
        "meta_rev_at_epoch": 2005,
        "meta_bstar": 0.00022635,
        "meta_mean_motion_dot": 1.375e-05,
        "meta_mean_motion_ddot": 0,
        "tle_line1": "1 64899U 25156A   25343.45590206  .00001375  00000+0  22635-3 0  9999",
        "tle_line2": "2 64899  98.0028  58.8540 0016934 154.8146 205.3890 14.72049485 20055"
      },
      "geometry": {
        "type": "Point",
        "coordinates": [
          -137.4524795487069,
          -63.71921506116551
        ]
      }
    },
    {
      "type": "Feature",
      "properties": {
        "norad_id": 64900,
        "name": "CO3D 3",
        "group": "resource",
        "lat": 57.925574540500605,
        "lon": -107.85722136639109,
        "alt_km": 498.7541323966043,
        "timestamp": "2025-12-09T16:56:36.238203+00:00",
        "meta_object_name": "CO3D 3",
        "meta_object_id": "2025-156B",
        "meta_epoch": "2025-12-08T18:17:44.446272",
        "meta_mean_motion": 15.2019842,
        "meta_eccentricity": 0.0001356,
        "meta_inclination": 97.4341,
        "meta_ra_of_asc_node": 59.1865,
        "meta_arg_of_pericenter": 106.1908,
        "meta_mean_anomaly": 253.9476,
        "meta_ephemeris_type": 0,
        "meta_classification_type": "U",
        "meta_norad_cat_id": 64900,
        "meta_element_set_no": 999,
        "meta_rev_at_epoch": 2060,
        "meta_bstar": 0.0004581347,
        "meta_mean_motion_dot": 9.862e-05,
        "meta_mean_motion_ddot": 0,
        "tle_line1": "1 64900U 25156B   25342.76231998  .00009862  00000+0  45813-3 0  9997",
        "tle_line2": "2 64900  97.4341  59.1865 0001356 106.1908 253.9476 15.20198420 20609"
      },
      "geometry": {
        "type": "Point",
        "coordinates": [
          -107.85722136639109,
          57.925574540500605
        ]
      }
    },
    {
      "type": "Feature",
      "properties": {
        "norad_id": 64901,
        "name": "CO3D 4",
        "group": "resource",
        "lat": 58.759378376775814,
        "lon": -107.4528757006268,
        "alt_km": 499.5847923723504,
        "timestamp": "2025-12-09T16:56:36.238214+00:00",
        "meta_object_name": "CO3D 4",
        "meta_object_id": "2025-156C",
        "meta_epoch": "2025-12-09T11:40:35.217408",
        "meta_mean_motion": 15.20214096,
        "meta_eccentricity": 0.0001085,
        "meta_inclination": 97.4339,
        "meta_ra_of_asc_node": 59.9005,
        "meta_arg_of_pericenter": 214.5382,
        "meta_mean_anomaly": 145.5783,
        "meta_ephemeris_type": 0,
        "meta_classification_type": "U",
        "meta_norad_cat_id": 64901,
        "meta_element_set_no": 999,
        "meta_rev_at_epoch": 2071,
        "meta_bstar": 0.00044711,
        "meta_mean_motion_dot": 9.627e-05,
        "meta_mean_motion_ddot": 0,
        "tle_line1": "1 64901U 25156C   25343.48651872  .00009627  00000+0  44711-3 0  9990",
        "tle_line2": "2 64901  97.4339  59.9005 0001085 214.5382 145.5783 15.20214096 20717"
      },
      "geometry": {
        "type": "Point",
        "coordinates": [
          -107.4528757006268,
          58.759378376775814
        ]
      }
    }
  ]
}